STARLINK-35467          
1 66343U 25253AA  25333.83335647 -.02070262  00000+0 -42568-1 0  9990
2 66343  42.9996  60.1212 0001262 271.8852 327.8867 15.48604678  4856
STARLINK-35511          
1 66344U 25253AB  25333.83335647 -.00068406  00000+0 -11694-2 0  9993
2 66344  42.9998  60.0928 0001558 271.8715 339.0553 15.50602333  4854
STARLINK-35440          
1 66345U 25253AC  25333.83335647 -.00070364  00000+0 -12033-2 0  9998
2 66345  42.9999  60.1002 0001571 272.2903 334.8021 15.50603090  4853
STARLINK-35482          
1 66346U 25253AD  25333.83335647 -.00082135  00000+0 -14075-2 0  9996
2 66346  42.9998  60.0965 0001561 269.4495 339.5650 15.50607675  4957
STARLINK-35438          
1 66347U 25253AE  25333.83335647 -.00051169  00000+0 -87175-3 0  9992
2 66347  42.9998  60.0864 0001636 269.9871 342.8649 15.50589324  4856
STARLINK-35849          
1 66348U 25254A   25333.54644479  .00209131  00000+0  13927-2 0  9993
2 66348  53.1590 340.4513 0001338  90.0058 270.1116 15.74261977  4763
STARLINK-35848          
1 66349U 25254B   25333.73657740  .00278673  00000+0  18390-2 0  9996
2 66349  53.1588 339.5036 0001899  81.8050 278.3185 15.74262661  3634
STARLINK-35829          
1 66350U 25254C   25333.73624108  .00333583  00000+0  21839-2 0  9994
2 66350  53.1588 339.5012 0002187  68.3767 291.7485 15.74285373  3633
STARLINK-35828          
1 66351U 25254D   25333.29147778  .00281424  00000+0  18552-2 0  9993
2 66351  53.1590 341.7038 0001881  99.7228 260.4004 15.74278964  3560
STARLINK-35850          
1 66352U 25254E   25333.73556544  .00333974  00000+0  21868-2 0  9990
2 66352  53.1589 339.4960 0002421  83.2756 276.8539 15.74280252  3637
STARLINK-35869          
1 66353U 25254F   25333.73522727  .00338845  00000+0  22174-2 0  9990
2 66353  53.1585 339.4937 0001931  82.9729 277.1511 15.74280480  3636
STARLINK-35895          
1 66354U 25254G   25332.84606341  .00303666  00000+0  20097-2 0  9992
2 66354  53.1585 343.9015 0001958 201.1174 158.9765 15.74121060  3491
STARLINK-35861          
1 66355U 25254H   25333.60756852  .00261538  00000+0  17290-2 0  9993
2 66355  53.1587 340.1191 0001361  76.6892 283.4279 15.74272486  3615
STARLINK-35851          
1 66356U 25254J   25333.60723147  .00156709  00000+0  10529-2 0  9996
2 66356  53.1588 340.1162 0001161  74.5751 285.5397 15.74224601  3614
STARLINK-35817          
1 66357U 25254K   25333.73387411  .00345421  00000+0  22587-2 0  9999
2 66357  53.1584 339.4841 0002044  72.6266 287.4977 15.74279203  3632
STARLINK-35807          
1 66358U 25254L   25333.60655586  .00166028  00000+0  11138-2 0  9991
2 66358  53.1588 340.1112 0001343  70.8916 289.2249 15.74228987  3613
STARLINK-35805          
1 66359U 25254M   25333.60621669  .00188626  00000+0  12606-2 0  9996
2 66359  53.1585 340.1091 0001420  64.8081 295.3086 15.74244264  4758
STARLINK-35823          
1 66360U 25254N   25333.73252534  .00355489  00000+0  23210-2 0  9999
2 66360  53.1583 339.4742 0002943  71.0342 289.0997 15.74284713  3633
STARLINK-35813          
1 66361U 25254P   25333.73285610  .00295857  00000+0  19471-2 0  9997
2 66361  53.1583 339.4770 0001502  86.3012 273.8179 15.74274890  3636
STARLINK-35822          
1 66362U 25254Q   25333.73184574  .00351690  00000+0  22974-2 0  9995
2 66362  53.1582 339.4700 0002048  77.6723 282.4526 15.74283318  3634
STARLINK-35806          
1 66363U 25254R   25333.60520128  .00234798  00000+0  15583-2 0  9998
2 66363  53.1585 340.1019 0001419 111.5351 248.5820 15.74261616  3611
STARLINK-35797          
1 66364U 25254S   25333.73150844  .00352704  00000+0  23042-2 0  9994
2 66364  53.1581 339.4672 0002171  78.4662 281.6601 15.74278890  3635
STARLINK-35827          
1 66365U 25254T   25333.73083313  .00349790  00000+0  22859-2 0  9997
2 66365  53.1581 339.4633 0002572  76.4837 283.6469 15.74280056  3631
STARLINK-35845          
1 66366U 25254U   25333.85814378  .00279143  00000+0  18403-2 0  9998
2 66366  53.1580 338.8346 0002416  86.4872 273.6424 15.74283551  3657
STARLINK-35846          
1 66367U 25254V   25333.73049644  .00347525  00000+0  22719-2 0  9997
2 66367  53.1580 339.4601 0002624  70.1694 289.9608 15.74277703  3636
STARLINK-34861          
1 66368U 25254W   25333.72982194  .00367934  00000+0  23987-2 0  9997
2 66368  53.1578 339.4546 0002958  75.5561 284.5787 15.74282279  3637
STARLINK-35795          
1 66369U 25254X   25333.73015687  .00334689  00000+0  21915-2 0  9993
2 66369  53.1577 339.4570 0002418  80.6658 279.4636 15.74277933  3636
STARLINK-35824          
1 66370U 25254Y   25333.72947627  .00228830  00000+0  15210-2 0  9993
2 66370  53.1578 339.4525 0001587  93.0960 267.0241 15.74245317  3635
STARLINK-35804          
1 66371U 25254Z   25333.72879987  .00247889  00000+0  16428-2 0  9994
2 66371  53.1577 339.4474 0001585  87.7816 272.3385 15.74255109  3634
STARLINK-35821          
1 66372U 25254AA  25333.72913808  .00249106  00000+0  16508-2 0  9999
2 66372  53.1579 339.4510 0001336 103.7922 256.3247 15.74253633  3638
STARLINK-35809          
1 66373U 25254AB  25333.72846184  .00256308  00000+0  16965-2 0  9991
2 66373  53.1576 339.4452 0001605  75.2165 284.9032 15.74258488  3634
STARLINK-35831          
1 66374U 25254AC  25333.72812486  .00256326  00000+0  16967-2 0  9992
2 66374  53.1575 339.4429 0001890  86.1282 273.9954 15.74258177  3631
STARLINK-35826          
1 66375U 25254AD  25333.72779131  .00367650  00000+0  23970-2 0  9997
2 66375  53.1574 339.4409 0002479  80.0717 280.0583 15.74282828  3636
SHIYAN-32 01            
1 66376U 25255A   25333.85918154  .00018247  00000+0  42732-3 0  9996
2 66376  52.9966 239.2802 0013349   2.3778 357.7287 15.42107525  3363
CZ-11 DEB               
1 66377U 25255B   25333.85001750  .00037230  00000+0  82832-3 0  9990
2 66377  52.9962 239.2229 0014026   0.0752   0.0252 15.43210548  3229
SHIYAN-32 02            
1 66378U 25255C   25333.84604589  .00055628  00000+0  12137-2 0  9990
2 66378  52.9972 239.1999 0012951   3.2110 356.8975 15.43625863  3226
SHIYAN-32 03            
1 66379U 25255D   25333.85431836  .00018319  00000+0  42349-3 0  9990
2 66379  52.9970 239.2508 0015337   3.3447 356.7657 15.42465543  3241
STARLINK-35139          
1 66380U 25257A   25333.83335647 -.00471880  00000+0 -89447-2 0  9992
2 66380  53.1593 325.5653 0001575  82.2626  95.1108 15.49478331  4366
STARLINK-35158          
1 66381U 25257B   25333.83335647 -.00470040  00000+0 -89084-2 0  9997
2 66381  53.1592 325.5613 0001784  79.4186  99.8699 15.49475018  4425
STARLINK-35639          
1 66382U 25257C   25333.83335647  .00101549  00000+0  18150-2 0  9997
2 66382  53.1592 325.5558 0001446  86.7058  94.5681 15.49234954  4423
STARLINK-35690          
1 66383U 25257D   25333.83335647 -.00030274  00000+0 -53833-3 0  9994
2 66383  53.1594 325.5481 0001476  83.7587 101.3238 15.49309717  4423
STARLINK-35662          
1 66384U 25257E   25333.83335647  .00101079  00000+0  18066-2 0  9993
2 66384  53.1594 325.5451 0001578  80.9648 106.0577 15.49236088  4429
STARLINK-35659          
1 66385U 25257F   25333.83335647 -.00032328  00000+0 -57556-3 0  9994
2 66385  53.1593 325.5527 0001495  81.1015 102.0652 15.49309754  4423
STARLINK-35651          
1 66386U 25257G   25333.83335647  .00103515  00000+0  18495-2 0  9998
2 66386  53.1594 325.5408 0001419  86.4137 102.5262 15.49234563  4429
STARLINK-35661          
1 66387U 25257H   25333.83335647  .00122155  00000+0  21752-2 0  9990
2 66387  53.1592 325.5375 0000949  75.5435 115.2653 15.49243899  4425
STARLINK-35647          
1 66388U 25257J   25333.83335647  .00125062  00000+0  22260-2 0  9996
2 66388  53.1593 325.5334 0001002  72.3439 120.3891 15.49243248  4421
STARLINK-35694          
1 66389U 25257K   25333.83335647  .00104370  00000+0  18644-2 0  9997
2 66389  53.1595 325.5281 0001509  79.7867 114.9001 15.49236279  4421
STARLINK-35665          
1 66390U 25257L   25333.83335647  .00101720  00000+0  18179-2 0  9998
2 66390  53.1595 325.4569 0001655  76.7526 152.4419 15.49235538  4520
STARLINK-35656          
1 66391U 25257M   25333.83335647 -.01900120  00000+0 -42466-1 0  9998
2 66391  53.1594 325.2326 0001029  95.1700 241.3735 15.46161236  4522
STARLINK-35671          
1 66392U 25257N   25333.83335647  .00128438  00000+0  22849-2 0  9994
2 66392  53.1595 325.5216 0001037  72.4846 125.9907 15.49243119  4424
STARLINK-35652          
1 66393U 25257P   25333.83335647  .00098852  00000+0  17674-2 0  9991
2 66393  53.1593 325.5249 0001572  81.9950 114.6109 15.49237480  4427
STARLINK-35672          
1 66394U 25257Q   25333.83335647  .00099705  00000+0  17824-2 0  9997
2 66394  53.1593 325.5163 0001535  80.9196 119.5199 15.49237225  4423
STARLINK-35681          
1 66395U 25257R   25333.83335647  .00100637  00000+0  17989-2 0  9997
2 66395  53.1593 325.5131 0001568  80.0470 122.3097 15.49236006  4268
STARLINK-35669          
1 66396U 25257S   25333.83335647  .00104253  00000+0  18625-2 0  9994
2 66396  53.1594 325.5083 0001429  80.7879 123.4860 15.49233846  4429
STARLINK-35510          
1 66397U 25257T   25333.83335647  .00126490  00000+0  22502-2 0  9991
2 66397  53.1595 325.5051 0000808  72.6970 133.4133 15.49251992  4424
STARLINK-35642          
1 66398U 25257U   25333.83335647  .00099504  00000+0  17790-2 0  9990
2 66398  53.1595 325.5003 0001505  78.4185 129.6920 15.49235936  4420
STARLINK-35657          
1 66399U 25257V   25333.83335647  .00103202  00000+0  18441-2 0  9996
2 66399  53.1594 325.4965 0001613  77.7810 132.2466 15.49232920  4428
STARLINK-35667          
1 66400U 25257W   25333.83335647  .00102688  00000+0  18349-2 0  9993
2 66400  53.1596 325.4881 0001598  79.5137 134.3440 15.49235350  4429
STARLINK-35668          
1 66401U 25257X   25333.83335647  .00102374  00000+0  18294-2 0  9995
2 66401  53.1593 325.4844 0001554  79.3049 136.4713 15.49234881  4422
